NORAD_CAT_ID,OBJECT_NAME,OBJECT_TYPE,EPOCH,MEAN_MOTION,ECCENTRICITY,INCLINATION,RA_OF_ASC_NODE,ARG_OF_PERICENTER,MEAN_ANOMALY,BSTAR,MEAN_MOTION_DOT,MEAN_MOTION_DDOT,TLE_LINE0,TLE_LINE1,TLE_LINE2,SEMIMAJOR_AXIS,PERIOD,APOGEE,PERIGEE,DECAYED
53916.0,STARLINK-5051,PAYLOAD,2022-09-30 12:00:00,15.89969327,0.003364,53.2173,225.9634,65.6191,347.3145,-0.0040446,-0.01301297,0.00048424,0 STARLINK-5051,1 53916U 22119AG  22273.50001157 -.01301297  48424-3 -40446-2 0  9994,2 53916  53.2173 225.9634 0033640  65.6191 347.3145 15.89969327  1302,6680.505999999999,90.568,324.844,279.898,0.0
53916.0,STARLINK-5051,PAYLOAD,2022-09-30 22:00:00,15.88260939,0.0028934,53.2195,223.8491,71.9415,206.8719,-0.0011541,-0.00339934,4.6633e-05,0 STARLINK-5051,1 53916U 22119AG  22273.91667824 -.00339934  46633-4 -11541-2 0  9991,2 53916  53.2195 223.8491 0028934  71.9415 206.8719 15.88260939  1301,6685.295,90.665,326.504,287.817,0.0
53916.0,STARLINK-5051,PAYLOAD,2022-10-01 06:00:00,15.87521944,0.0025151999999999,53.2175,222.1651,74.4163,311.598,-0.0019451,-0.00544616,9.9617e-05,0 STARLINK-5051,1 53916U 22119AG  22274.25001157 -.00544616  99617-4 -19451-2 0  9993,2 53916  53.2175 222.1651 0025152  74.4163 311.5980 15.87521944  1417,6687.37,90.707,326.055,292.415,0.0
53916.0,STARLINK-5051,PAYLOAD,2022-10-01 14:00:01,15.86543466,0.0021874,53.2183,220.4782,77.6282,54.6495,-0.0012798,-0.00340614,4.6103e-05,0 STARLINK-5051,1 53916U 22119AG  22274.58334491 -.00340614  46103-4 -12798-2 0  9990,2 53916  53.2183 220.4782 0021874  77.6282  54.6495 15.86543466  1470,6690.119000000002,90.763,326.618,297.35,0.0
53916.0,STARLINK-5051,PAYLOAD,2022-10-01 22:00:00,15.85556817,0.0017245,53.2188,218.7951,79.7835,157.7547,-0.00076032,-0.00186572,0.0,0 STARLINK-5051,1 53916U 22119AG  22274.91667824 -.00186572  00000-0 -76032-3 0  9991,2 53916  53.2188 218.7951 0017245  79.7835 157.7547 15.85556817  1529,6692.894,90.82,326.301,303.217,0.0
53916.0,STARLINK-5051,PAYLOAD,2022-10-02 04:00:00,15.85658889,0.0014875,53.2174,217.5365,78.7654,146.5754,-0.0054727,-0.01200166,0.0,0 STARLINK-5051,1 53916U 22119AG  22275.16667824 -.01200166  00000-0 -54727-2 0  9992,2 53916  53.2174 217.5365 0014875  78.7654 146.5754 15.85658889  1566,6692.607,90.814,324.427,304.517,0.0
53916.0,STARLINK-5051,PAYLOAD,2022-10-02 14:00:01,15.84281525,0.0009897,53.2186,215.438,79.5514,4.9584,-0.0037565,-0.00800608,0.0,0 STARLINK-5051,1 53916U 22119AG  22275.58334491 -.00800608  00000-0 -37565-2 0  9996,2 53916  53.2186 215.4380 0009897  79.5514   4.9584 15.84281525  1303,6696.486,90.893,324.978,311.723,0.0
53916.0,STARLINK-5051,PAYLOAD,2022-10-02 22:00:00,15.83608767,0.000644,53.2186,213.7608,84.226,102.24,-0.0053251999999999,-0.01062329,0.0,0 STARLINK-5051,1 53916U 22119AG  22275.91667824 -.01062329  00000-0 -53252-2 0  9994,2 53916  53.2186 213.7608 0006440  84.2260 102.2400 15.83608767  1308,6698.382,90.932,324.561,315.933,0.0
53916.0,STARLINK-5051,PAYLOAD,2022-10-03 04:00:01,15.83041271,0.0004093,53.2175,212.5057,78.8319,93.5136,-0.0061178,-0.01192374,0.0,0 STARLINK-5051,1 53916U 22119AG  22276.16668981 -.01192374  00000-0 -61178-2 0  9997,2 53916  53.2175 212.5057 0004093  78.8319  93.5136 15.83041271  1722,6699.983,90.964,324.59,319.105,0.0
53916.0,STARLINK-5051,PAYLOAD,2022-10-03 12:00:00,15.82184182,0.0001517,53.2173,210.8319,89.0703,183.4317,-0.0064836,-0.01209245,0.0,0 STARLINK-5051,1 53916U 22119AG  22276.50001157 -.01209245  00000-0 -64836-2 0  9991,2 53916  53.2173 210.8319 0001517  89.0703 183.4317 15.82184182  1774,6702.401999999999,91.013,325.284,323.25,0.0
53916.0,STARLINK-5051,PAYLOAD,2022-10-03 14:00:01,15.81983477,0.0001267,53.2186,210.4152,84.2874,303.0987,-0.0066644999999999,-0.01228623,0.0,0 STARLINK-5051,1 53916U 22119AG  22276.58334491 -.01228623  00000-0 -66645-2 0  9990,2 53916  53.2186 210.4152 0001267  84.2874 303.0987 15.81983477  1302,6702.969,91.025,325.683,323.985,0.0
53916.0,STARLINK-5051,PAYLOAD,2022-10-03 22:00:00,15.81046461,0.000117,53.2182,208.7447,90.7012,35.6401,-0.0063824,-0.01136721,0.0,0 STARLINK-5051,1 53916U 22119AG  22276.91667824 -.01136721  00000-0 -63824-2 0  9999,2 53916  53.2182 208.7447 0001170  90.7012  35.6401 15.81046461  1306,6705.6169999999975,91.079,328.267,326.698,0.0
53916.0,STARLINK-5051,PAYLOAD,2022-10-04 04:00:00,15.80442112,0.0001125999999999,53.2176,207.4942,75.6966,34.1281,-0.0069596999999999,-0.01197565,0.0,0 STARLINK-5051,1 53916U 22119AG  22277.16667824 -.01197565  00000-0 -69597-2 0  9993,2 53916  53.2176 207.4942 0001126  75.6966  34.1281 15.80442112  1881,6707.326,91.114,329.94699999999995,328.436,0.0
53916.0,STARLINK-5051,PAYLOAD,2022-10-04 14:00:01,15.79357087,0.0001386999999999,53.2176,205.4099,141.2139,179.8194,-0.0073174999999999,-0.01197743,0.0,0 STARLINK-5051,1 53916U 22119AG  22277.58334491 -.01197743  00000-0 -73175-2 0  9995,2 53916  53.2176 205.4099 0001387 141.2139 179.8194 15.79357087  1304,6710.398,91.176,333.194,331.332,0.0
53916.0,STARLINK-5051,PAYLOAD,2022-10-04 20:00:01,15.78706348,0.0001291999999999,53.2176,204.1619,130.3821,172.5928,-0.0075298999999999,-0.01196447,0.0,0 STARLINK-5051,1 53916U 22119AG  22277.83334491 -.01196447  00000-0 -75299-2 0  9992,2 53916  53.2176 204.1619 0001292 130.3821 172.5928 15.78706348  1986,6712.2419999999975,91.214,334.974,333.24,0.0
53916.0,STARLINK-5051,PAYLOAD,2022-10-04 22:00:00,15.77718376,8.170000000000001e-05,53.2171,203.7456,110.404,306.834,-0.00091319,-0.00154047,0.0,0 STARLINK-5051,1 53916U 22119AG  22277.91667824 -.00154047  00000-0 -91319-3 0  9991,2 53916  53.2171 203.7456 0000817 110.4040 306.8340 15.77718376  1308,6715.044,91.271,337.457,336.36,0.0
53916.0,STARLINK-5051,PAYLOAD,2022-10-05 06:00:00,15.76862388,0.0001450999999999,53.218,202.0869,106.2399,45.7112,-0.00075496,-0.00123164,0.0,0 STARLINK-5051,1 53916U 22119AG  22278.25001157 -.00123164  00000-0 -75496-3 0  9994,2 53916  53.2180 202.0869 0001451 106.2399  45.7112 15.76862388  2054,6717.474,91.321,340.3130000000001,338.3640000000001,0.0
53916.0,STARLINK-5051,PAYLOAD,2022-10-05 14:00:01,15.76607726,6.9e-05,53.2173,200.4252,83.6215,161.7949,-0.006779,-0.00999785,0.0,0 STARLINK-5051,1 53916U 22119AG  22278.58335648 -.00999785  00000-0 -67790-2 0  9992,2 53916  53.2173 200.4252 0000690  83.6215 161.7949 15.76607726  2109,6718.196999999999,91.335,340.526,339.599,0.0
53916.0,STARLINK-5051,PAYLOAD,2022-10-05 20:00:01,15.76101323,0.0001182,53.2176,199.1826,83.79799999999999,141.0782,-0.0084422999999999,-0.0119323,0.0,0 STARLINK-5051,1 53916U 22119AG  22278.83334491 -.01193230  00000-0 -84423-2 0  9999,2 53916  53.2176 199.1826 0001182  83.7980 141.0782 15.76101323  2142,6719.636,91.365,342.295,340.707,0.0
53916.0,STARLINK-5051,PAYLOAD,2022-10-05 22:00:00,15.75885364,9.95e-05,53.2176,198.769,79.3534,258.591,-0.0085429,-0.01195522,0.0,0 STARLINK-5051,1 53916U 22119AG  22278.91667824 -.01195522  00000-0 -85429-2 0  9990,2 53916  53.2176 198.7690 0000995  79.3534 258.5910 15.75885364  1300,6720.25,91.377,342.784,341.446,0.0
53916.0,STARLINK-5051,PAYLOAD,2022-10-06 06:00:00,15.7713496,0.0001088999999999,53.2241,197.1171,111.7528,322.6547,0.0010267999999999,0.00173973,0.0,0 STARLINK-5051,1 53916U 22119AG  22279.25001157  .00173973  00000-0  10268-2 0  9991,2 53916  53.2241 197.1171 0001089 111.7528 322.6547 15.77134960  2210,6716.7,91.305,339.296,337.833,0.0
53916.0,STARLINK-5051,PAYLOAD,2022-10-06 14:00:01,15.77210655,0.0001133,53.2242,195.4562,127.4298,40.6972,0.00086567,0.00146586,0.0,0 STARLINK-5051,1 53916U 22119AG  22279.58334491  .00146586  00000-0  86567-3 0  9993,2 53916  53.2242 195.4562 0001133 127.4298  40.6972 15.77210655  1308,6716.485,91.3,339.111,337.589,0.0
53916.0,STARLINK-5051,PAYLOAD,2022-10-06 22:00:00,15.77327862,0.0001165999999999,53.2243,193.7981,126.0749,135.8582,0.00049826,0.00083907,0.0,0 STARLINK-5051,1 53916U 22119AG  22279.91667824  .00083907  00000-0  49826-3 0  9993,2 53916  53.2243 193.7981 0001166 126.0749 135.8582 15.77327862  2312,6716.151999999999,91.294,338.8,337.2340000000001,0.0
53916.0,STARLINK-5051,PAYLOAD,2022-10-06 22:42:55,15.77334835,0.0001151,53.2243,193.6501,125.4916,305.7071,0.00047662,0.00080224,0.0,0 STARLINK-5051,1 53916U 22119AG  22279.94646991  .00080224  00000-0  47662-3 0  9993,2 53916  53.2243 193.6501 0001151 125.4916 305.7071 15.77334835  1309,6716.132,91.293,338.77,337.224,0.0
53916.0,STARLINK-5051,PAYLOAD,2022-10-07 04:00:00,15.77281651,0.0001189999999999,53.2244,192.555,115.0981,127.2496,0.00011717,0.00019035,0.0,0 STARLINK-5051,1 53916U 22119AG  22280.16667824  .00019035  00000-0  11717-3 0  9991,2 53916  53.2244 192.5550 0001190 115.0981 127.2496 15.77281651  2353,6716.283,91.296,338.9480000000001,337.349,0.0
53916.0,STARLINK-5051,PAYLOAD,2022-10-07 12:00:00,15.77289187,0.0001411,53.2247,190.894,124.3253,211.8671,-0.00026502,-0.00044891,0.0,0 STARLINK-5051,1 53916U 22119AG  22280.50001157 -.00044891  00000-0 -26502-3 0  9998,2 53916  53.2247 190.8940 0001411 124.3253 211.8671 15.77289187  2404,6716.262,91.296,339.075,337.1790000000001,0.0
53916.0,STARLINK-5051,PAYLOAD,2022-10-07 14:00:01,15.77252818,0.0001435,53.2246,190.4788,126.5907,323.0701,0.00012587,0.00020474,0.0,0 STARLINK-5051,1 53916U 22119AG  22280.58334491  .00020474  00000-0  12587-3 0  9993,2 53916  53.2246 190.4788 0001435 126.5907 323.0701 15.77252818  1304,6716.365,91.298,339.194,337.266,0.0
53916.0,STARLINK-5051,PAYLOAD,2022-10-07 20:00:01,15.77251239,0.0001557,53.2236,189.2376,121.0895,308.8863,-0.00022026,-0.00037392,0.0,0 STARLINK-5051,1 53916U 22119AG  22280.83334491 -.00037392  00000-0 -22026-3 0  9999,2 53916  53.2236 189.2376 0001557 121.0895 308.8863 15.77251239  2467,6716.37,91.298,339.28,337.189,0.0
53916.0,STARLINK-5051,PAYLOAD,2022-10-07 22:00:00,15.77241617,0.0001496999999999,53.2231,188.8248,119.8213,63.602,-0.0001561999999999,-0.0002673,0.0,0 STARLINK-5051,1 53916U 22119AG  22280.91667824 -.00026730  00000-0 -15620-3 0  9993,2 53916  53.2231 188.8248 0001497 119.8213  63.6020 15.77241617  1309,6716.397,91.299,339.267,337.25699999999995,0.0
